{"type": "FeatureCollection", "features": [ {"type": "Feature", "properties": {"norad_id": 36743, "name": "FENGYUN 1C DEB", "group": "fengyun-1c-debris", "lat": -63.80050632969307, "lon": 44.112705561690305, "alt_km": 810.9772802831931, "timestamp": "2025-12-03T17:47:51.006060+00:00", "meta": {"OBJECT_NAME": "FENGYUN 1C DEB", "OBJECT_ID": "1999-025EBR", "EPOCH": "2025-12-02T08:29:31.865856", "MEAN_MOTION": 14.2899004, "ECCENTRICITY": 0.00479212, "INCLINATION": 98.6575, "RA_OF_ASC_NODE": 24.6973, "ARG_OF_PERICENTER": 43.9124, "MEAN_ANOMALY": 316.585, "EPHEMERIS_TYPE": 0, "CLASSIFICATION_TYPE": "U", "NORAD_CAT_ID": 36743, "ELEMENT_SET_NO": 999, "REV_AT_EPOCH": 60589, "BSTAR": 0.0015639593, "MEAN_MOTION_DOT": 3.963e-05, "MEAN_MOTION_DDOT": 0}, "tle": {"line1": "1 36743U 99025EBR 25336.35384104  .00003963  00000+0  15640-2 0  9993", "line2": "2 36743  98.6575  24.6973 0047921  43.9124 316.5850 14.28990040605895"}}, "geometry": {"type": "Point", "coordinates": [44.112705561690305, -63.80050632969307]}}, {"type": "Feature", "properties": {"norad_id": 36986, "name": "FENGYUN 1C DEB", "group": "fengyun-1c-debris", "lat": 3.217036552376683, "lon": 43.001641143931984, "alt_km": 852.9860653773794, "timestamp": "2025-12-03T17:47:51.006070+00:00", "meta": {"OBJECT_NAME": "FENGYUN 1C DEB", "OBJECT_ID": "1999-025EBS", "EPOCH": "2025-11-23T16:41:57.060384", "MEAN_MOTION": 14.14366632, "ECCENTRICITY": 0.00851125, "INCLINATION": 99.1414, "RA_OF_ASC_NODE": 33.2424, "ARG_OF_PERICENTER": 295.2999, "MEAN_ANOMALY": 63.9373, "EPHEMERIS_TYPE": 0, "CLASSIFICATION_TYPE": "U", "NORAD_CAT_ID": 36986, "ELEMENT_SET_NO": 999, "REV_AT_EPOCH": 81475, "BSTAR": 0.0017459823, "MEAN_MOTION_DOT": 3.412e-05, "MEAN_MOTION_DDOT": 0}, "tle": {"line1": "1 36986U 99025EBS 25327.69579931  .00003412  00000+0  17460-2 0  9994", "line2": "2 36986  99.1414  33.2424 0085112 295.2999  63.9373 14.14366632814754"}}, "geometry": {"type": "Point", "coordinates": [43.001641143931984, 3.217036552376683]}}, {"type": "Feature", "properties": {"norad_id": 36987, "name": "FENGYUN 1C DEB", "group": "fengyun-1c-debris", "lat": -33.51820049609202, "lon": -134.92455397021575, "alt_km": 1137.0416708775156, "timestamp": "2025-12-03T17:47:51.006080+00:00", "meta": {"OBJECT_NAME": "FENGYUN 1C DEB", "OBJECT_ID": "1999-025EBT", "EPOCH": "2025-12-02T22:20:26.678112", "MEAN_MOTION": 13.45848685, "ECCENTRICITY": 0.03193784, "INCLINATION": 100.8193, "RA_OF_ASC_NODE": 216.9246, "ARG_OF_PERICENTER": 70.1145, "MEAN_ANOMALY": 293.4099, "EPHEMERIS_TYPE": 0, "CLASSIFICATION_TYPE": "U", "NORAD_CAT_ID": 36987, "ELEMENT_SET_NO": 999, "REV_AT_EPOCH": 60745, "BSTAR": 0.0014450845, "MEAN_MOTION_DOT": 1.124e-05, "MEAN_MOTION_DDOT": 0}, "tle": {"line1": "1 36987U 99025EBT 25336.93086433  .00001124  00000+0  14451-2 0  9997", "line2": "2 36987 100.8193 216.9246 0319378  70.1145 293.4099 13.45848685607456"}}, "geometry": {"type": "Point", "coordinates": [-134.92455397021575, -33.51820049609202]}}, {"type": "Feature", "properties": {"norad_id": 36994, "name": "FENGYUN 1C DEB", "group": "fengyun-1c-debris", "lat": -48.00328165327616, "lon": -49.65716274105252, "alt_km": 849.2137420453937, "timestamp": "2025-12-03T17:47:51.006090+00:00", "meta": {"OBJECT_NAME": "FENGYUN 1C DEB", "OBJECT_ID": "1999-025ECA", "EPOCH": "2025-12-02T04:02:29.947488", "MEAN_MOTION": 13.90778611, "ECCENTRICITY": 0.01150307, "INCLINATION": 98.6418, "RA_OF_ASC_NODE": 299.1542, "ARG_OF_PERICENTER": 322.4253, "MEAN_ANOMALY": 36.8909, "EPHEMERIS_TYPE": 0, "CLASSIFICATION_TYPE": "U", "NORAD_CAT_ID": 36994, "ELEMENT_SET_NO": 999, "REV_AT_EPOCH": 80760, "BSTAR": 0.00021509724, "MEAN_MOTION_DOT": 2.43e-06, "MEAN_MOTION_DDOT": 0}, "tle": {"line1": "1 36994U 99025ECA 25336.16840217  .00000243  00000+0  21510-3 0  9994", "line2": "2 36994  98.6418 299.1542 0115030 322.4253  36.8909 13.90778611807601"}}, "geometry": {"type": "Point", "coordinates": [-49.65716274105252, -48.00328165327616]}}, {"type": "Feature", "properties": {"norad_id": 36995, "name": "FENGYUN 1C DEB", "group": "fengyun-1c-debris", "lat": 58.15670309441745, "lon": 50.83566970987171, "alt_km": 894.1253650079107, "timestamp": "2025-12-03T17:47:51.006101+00:00", "meta": {"OBJECT_NAME": "FENGYUN 1C DEB", "OBJECT_ID": "1999-025ECB", "EPOCH": "2025-12-02T22:25:21.666720", "MEAN_MOTION": 14.04865575, "ECCENTRICITY": 0.00390494, "INCLINATION": 98.3441, "RA_OF_ASC_NODE": 216.4246, "ARG_OF_PERICENTER": 339.4801, "MEAN_ANOMALY": 20.4798, "EPHEMERIS_TYPE": 0, "CLASSIFICATION_TYPE": "U", "NORAD_CAT_ID": 36995, "ELEMENT_SET_NO": 999, "REV_AT_EPOCH": 63419, "BSTAR": 4.8277221e-05, "MEAN_MOTION_DOT": 3.9e-07, "MEAN_MOTION_DDOT": 0}, "tle": {"line1": "1 36995U 99025ECB 25336.93427855  .00000039  00000+0  48277-4 0  9992", "line2": "2 36995  98.3441 216.4246 0039049 339.4801  20.4798 14.04865575634199"}}, "geometry": {"type": "Point", "coordinates": [50.83566970987171, 58.15670309441745]}}, {"type": "Feature", "properties": {"norad_id": 36996, "name": "FENGYUN 1C DEB", "group": "fengyun-1c-debris", "lat": 14.132377165043298, "lon": 128.62478476805032, "alt_km": 670.5791298208533, "timestamp": "2025-12-03T17:47:51.006111+00:00", "meta": {"OBJECT_NAME": "FENGYUN 1C DEB", "OBJECT_ID": "1999-025ECC", "EPOCH": "2025-11-27T05:46:51.154176", "MEAN_MOTION": 14.11461211, "ECCENTRICITY": 0.02552856, "INCLINATION": 98.2247, "RA_OF_ASC_NODE": 124.7451, "ARG_OF_PERICENTER": 33.8599, "MEAN_ANOMALY": 87.2847, "EPHEMERIS_TYPE": 0, "CLASSIFICATION_TYPE": "U", "NORAD_CAT_ID": 36996, "ELEMENT_SET_NO": 999, "REV_AT_EPOCH": 59473, "BSTAR": 0.00085126792, "MEAN_MOTION_DOT": 2.056e-05, "MEAN_MOTION_DDOT": 0}, "tle": {"line1": "1 36996U 99025ECC 25331.24086984  .00002056  00000+0  85127-3 0  9991", "line2": "2 36996  98.2247 124.7451 0255285  33.8599  87.2847 14.11461211594731"}}, "geometry": {"type": "Point", "coordinates": [128.62478476805032, 14.132377165043298]}}, {"type": "Feature", "properties": {"norad_id": 37003, "name": "FENGYUN 1C DEB", "group": "fengyun-1c-debris", "lat": -20.61834915266478, "lon": 178.3552031140957, "alt_km": 843.9145064176428, "timestamp": "2025-12-03T17:47:51.006121+00:00", "meta": {"OBJECT_NAME": "FENGYUN 1C DEB", "OBJECT_ID": "1999-025ECK", "EPOCH": "2025-11-29T08:00:12.278880", "MEAN_MOTION": 13.96183433, "ECCENTRICITY": 0.00964489, "INCLINATION": 98.8482, "RA_OF_ASC_NODE": 357.4784, "ARG_OF_PERICENTER": 198.9753, "MEAN_ANOMALY": 177.4394, "EPHEMERIS_TYPE": 0, "CLASSIFICATION_TYPE": "U", "NORAD_CAT_ID": 37003, "ELEMENT_SET_NO": 999, "REV_AT_EPOCH": 60470, "BSTAR": 0.00050828845, "MEAN_MOTION_DOT": 6.84e-06, "MEAN_MOTION_DDOT": 0}, "tle": {"line1": "1 37003U 99025ECK 25333.33347545  .00000684  00000+0  50829-3 0  9992", "line2": "2 37003  98.8482 357.4784 0096448 198.9753 177.4394 13.96183433604708"}}, "geometry": {"type": "Point", "coordinates": [178.3552031140957, -20.61834915266478]}}, {"type": "Feature", "properties": {"norad_id": 37006, "name": "FENGYUN 1C DEB", "group": "fengyun-1c-debris", "lat": -75.0837018920227, "lon": 7.429711493386229, "alt_km": 562.2875419845232, "timestamp": "2025-12-03T17:47:51.006131+00:00", "meta": {"OBJECT_NAME": "FENGYUN 1C DEB", "OBJECT_ID": "1999-025ECN", "EPOCH": "2025-11-30T22:17:22.604640", "MEAN_MOTION": 14.48720025, "ECCENTRICITY": 0.02561349, "INCLINATION": 99.2981, "RA_OF_ASC_NODE": 222.2839, "ARG_OF_PERICENTER": 283.324, "MEAN_ANOMALY": 73.9509, "EPHEMERIS_TYPE": 0, "CLASSIFICATION_TYPE": "U", "NORAD_CAT_ID": 37006, "ELEMENT_SET_NO": 999, "REV_AT_EPOCH": 64943, "BSTAR": 0.00098281369, "MEAN_MOTION_DOT": 5.562e-05, "MEAN_MOTION_DDOT": 0}, "tle": {"line1": "1 37006U 99025ECN 25334.92873385  .00005562  00000+0  98281-3 0  9991", "line2": "2 37006  99.2981 222.2839 0256134 283.3240  73.9509 14.48720025649439"}}, "geometry": {"type": "Point", "coordinates": [7.429711493386229, -75.0837018920227]}}, {"type": "Feature", "properties": {"norad_id": 37008, "name": "FENGYUN 1C DEB", "group": "fengyun-1c-debris", "lat": -4.760048830898859, "lon": -84.28082089398612, "alt_km": 872.9238955422679, "timestamp": "2025-12-03T17:47:51.006141+00:00", "meta": {"OBJECT_NAME": "FENGYUN 1C DEB", "OBJECT_ID": "1999-025ECQ", "EPOCH": "2025-12-03T06:40:56.896320", "MEAN_MOTION": 14.07864838, "ECCENTRICITY": 0.0061332, "INCLINATION": 99.1352, "RA_OF_ASC_NODE": 96.0185, "ARG_OF_PERICENTER": 279.9082, "MEAN_ANOMALY": 79.5167, "EPHEMERIS_TYPE": 0, "CLASSIFICATION_TYPE": "U", "NORAD_CAT_ID": 37008, "ELEMENT_SET_NO": 999, "REV_AT_EPOCH": 60181, "BSTAR": 0.00175, "MEAN_MOTION_DOT": 2.974e-05, "MEAN_MOTION_DDOT": 0}, "tle": {"line1": "1 37008U 99025ECQ 25337.27843630  .00002974  00000+0  17500-2 0  9992", "line2": "2 37008  99.1352  96.0185 0061332 279.9082  79.5167 14.07864838601810"}}, "geometry": {"type": "Point", "coordinates": [-84.28082089398612, -4.760048830898859]}}, {"type": "Feature", "properties": {"norad_id": 37017, "name": "FENGYUN 1C DEB", "group": "fengyun-1c-debris", "lat": 4.0932352091212145, "lon": 102.62996304369716, "alt_km": 921.0249139392799, "timestamp": "2025-12-03T17:47:51.006151+00:00", "meta": {"OBJECT_NAME": "FENGYUN 1C DEB", "OBJECT_ID": "1999-025ECZ", "EPOCH": "2025-12-02T02:39:25.684416", "MEAN_MOTION": 14.40374122, "ECCENTRICITY": 0.02839314, "INCLINATION": 98.7881, "RA_OF_ASC_NODE": 280.3191, "ARG_OF_PERICENTER": 36.7665, "MEAN_ANOMALY": 325.2632, "EPHEMERIS_TYPE": 0, "CLASSIFICATION_TYPE": "U", "NORAD_CAT_ID": 37017, "ELEMENT_SET_NO": 999, "REV_AT_EPOCH": 61008, "BSTAR": 0.0019565669, "MEAN_MOTION_DOT": 9.982e-05, "MEAN_MOTION_DDOT": 0}, "tle": {"line1": "1 37017U 99025ECZ 25336.11071394  .00009982  00000+0  19566-2 0  9994", "line2": "2 37017  98.7881 280.3191 0283931  36.7665 325.2632 14.40374122610080"}}, "geometry": {"type": "Point", "coordinates": [102.62996304369716, 4.0932352091212145]}}]}